******** Week 682 almanac for PRN-17 ********
ID:                         17
Health:                     000
Eccentricity:               0.7542133331E-002
Time of Applicability(s):  319488.0000
Orbital Inclination(rad):   0.9634202291
Rate of Right Ascen(r/s):  -0.8057478483E-008
SQRT(A)  (m 1/2):           5153.677246
Right Ascen at Week(rad):   0.2036639627E+001
Argument of Perigee(rad):  -2.297650428
Mean Anom(rad):             0.2760630997E+001
Af0(s):                     0.9536743164E-004
Af1(s/s):                  -0.3637978807E-011
week:                        682

******** Week 682 almanac for PRN-18 ********
ID:                         18
Health:                     000
Eccentricity:               0.1364135742E-001
Time of Applicability(s):  319488.0000
Orbital Inclination(rad):   0.9288996693
Rate of Right Ascen(r/s):  -0.8103194673E-008
SQRT(A)  (m 1/2):           5153.677734
Right Ascen at Week(rad):  -0.2183381593E+001
Argument of Perigee(rad):  -2.143030707
Mean Anom(rad):            -0.2067158579E+001
Af0(s):                     0.2155303955E-003
Af1(s/s):                   0.0000000000E+000
week:                        682

******** Week 682 almanac for PRN-19 ********
ID:                         19
Health:                     000
Eccentricity:               0.8592605591E-002
Time of Applicability(s):  319488.0000
Orbital Inclination(rad):   0.9607836996
Rate of Right Ascen(r/s):  -0.8091765626E-008
SQRT(A)  (m 1/2):           5153.559082
Right Ascen at Week(rad):   0.2089357109E+001
Argument of Perigee(rad):   0.251158270
Mean Anom(rad):             0.1936156395E+001
Af0(s):                    -0.3051757812E-003
Af1(s/s):                  -0.3637978807E-011
week:                        682

******** Week 682 almanac for PRN-20 ********
ID:                         20
Health:                     000
Eccentricity:               0.5030632019E-002
Time of Applicability(s):  319488.0000
Orbital Inclination(rad):   0.9294988805
Rate of Right Ascen(r/s):  -0.8103194673E-008
SQRT(A)  (m 1/2):           5153.581055
Right Ascen at Week(rad):  -0.2237028601E+001
Argument of Perigee(rad):   1.272415717
Mean Anom(rad):            -0.1611795109E+001
Af0(s):                     0.6866455078E-004
Af1(s/s):                   0.0000000000E+000
week:                        682

******** Week 682 almanac for PRN-21 ********
ID:                         21
Health:                     000
Eccentricity:               0.1933383942E-001
Time of Applicability(s):  319488.0000
Orbital Inclination(rad):   0.9318477886
Rate of Right Ascen(r/s):  -0.8160339911E-008
SQRT(A)  (m 1/2):           5153.735840
Right Ascen at Week(rad):   0.3050312183E+001
Argument of Perigee(rad):  -2.215941983
Mean Anom(rad):            -0.9261895866E+000
Af0(s):                    -0.2508163452E-003
Af1(s/s):                  -0.3637978807E-011
week:                        682

******** Week 682 almanac for PRN-22 ********
ID:                         22
Health:                     000
Eccentricity:               0.6299495697E-002
Time of Applicability(s):  319488.0000
Orbital Inclination(rad):   0.9266226665
Rate of Right Ascen(r/s):  -0.8137481816E-008
SQRT(A)  (m 1/2):           5153.621582
Right Ascen at Week(rad):  -0.2180243973E+001
Argument of Perigee(rad):  -2.003744053
Mean Anom(rad):            -0.2828840711E+001
Af0(s):                     0.1478195190E-003
Af1(s/s):                   0.0000000000E+000
week:                        682

******** Week 682 almanac for PRN-23 ********
ID:                         23
Health:                     000
Eccentricity:               0.8232116699E-002
Time of Applicability(s):  319488.0000
Orbital Inclination(rad):   0.9584887206
Rate of Right Ascen(r/s):  -0.8297488481E-008
SQRT(A)  (m 1/2):           5153.528809
Right Ascen at Week(rad):  -0.1128716246E+001
Argument of Perigee(rad):  -2.932644696
Mean Anom(rad):             0.1543330730E+001
Af0(s):                     0.1630783081E-003
Af1(s/s):                  -0.3637978807E-011
week:                        682

******** Week 682 almanac for PRN-25 ********
ID:                         25
Health:                     000
Eccentricity:               0.1811504364E-002
Time of Applicability(s):  319488.0000
Orbital Inclination(rad):   0.9699576238
Rate of Right Ascen(r/s):  -0.7703178011E-008
SQRT(A)  (m 1/2):           5153.613770
Right Ascen at Week(rad):   0.9432184212E+000
Argument of Perigee(rad):   0.777739869
Mean Anom(rad):            -0.1571659191E+001
Af0(s):                     0.4386901855E-004
Af1(s/s):                   0.0000000000E+000
week:                        682

******** Week 682 almanac for PRN-26 ********
ID:                         26
Health:                     000
Eccentricity:               0.2078962326E-001
Time of Applicability(s):  319488.0000
Orbital Inclination(rad):   0.9816841879
Rate of Right Ascen(r/s):  -0.8103194673E-008
SQRT(A)  (m 1/2):           5153.611328
Right Ascen at Week(rad):  -0.1053469171E+001
Argument of Perigee(rad):   1.206656402
Mean Anom(rad):             0.1406913549E+001
Af0(s):                    -0.2756118774E-003
Af1(s/s):                   0.1455191523E-010
week:                        682

******** Week 682 almanac for PRN-27 ********
ID:                         27
Health:                     000
Eccentricity:               0.2176666260E-001
Time of Applicability(s):  319488.0000
Orbital Inclination(rad):   0.9822474464
Rate of Right Ascen(r/s):  -0.7806039439E-008
SQRT(A)  (m 1/2):           5153.638184
Right Ascen at Week(rad):  -0.1299704171E+000
Argument of Perigee(rad):  -1.033910167
Mean Anom(rad):             0.2219908012E+001
Af0(s):                     0.4329681396E-003
Af1(s/s):                   0.3637978807E-011
week:                        682

******** Week 682 almanac for PRN-28 ********
ID:                         28
Health:                     000
Eccentricity:               0.1806879044E-001
Time of Applicability(s):  319488.0000
Orbital Inclination(rad):   0.9802400888
Rate of Right Ascen(r/s):  -0.7634603726E-008
SQRT(A)  (m 1/2):           5153.589844
Right Ascen at Week(rad):   0.1003426418E+001
Argument of Perigee(rad):  -1.821092107
Mean Anom(rad):            -0.2875815876E+001
Af0(s):                     0.1869201660E-003
Af1(s/s):                   0.3637978807E-011
week:                        682

******** Week 682 almanac for PRN-29 ********
ID:                         29
Health:                     000
Eccentricity:               0.1832485199E-002
Time of Applicability(s):  319488.0000
Orbital Inclination(rad):   0.9640014640
Rate of Right Ascen(r/s):  -0.8057478483E-008
SQRT(A)  (m 1/2):           5153.723145
Right Ascen at Week(rad):   0.2045275010E+001
Argument of Perigee(rad):  -1.063897319
Mean Anom(rad):            -0.7261653828E+000
Af0(s):                     0.3576278687E-003
Af1(s/s):                   0.3637978807E-011
week:                        682

******** Week 682 almanac for PRN-30 ********
ID:                         30
Health:                     000
Eccentricity:               0.1115131378E-001
Time of Applicability(s):  319488.0000
Orbital Inclination(rad):   0.9611971554
Rate of Right Ascen(r/s):  -0.7806039439E-008
SQRT(A)  (m 1/2):           5153.667969
Right Ascen at Week(rad):   0.8512776947E+000
Argument of Perigee(rad):   1.608479973
Mean Anom(rad):             0.2624760596E+001
Af0(s):                    -0.4053115845E-003
Af1(s/s):                   0.1818989404E-010
week:                        682

******** Week 682 almanac for PRN-31 ********
ID:                         31
Health:                     000
Eccentricity:               0.7815837860E-002
Time of Applicability(s):  319488.0000
Orbital Inclination(rad):   0.9811928346
Rate of Right Ascen(r/s):  -0.7840326581E-008
SQRT(A)  (m 1/2):           5153.684082
Right Ascen at Week(rad):  -0.7451229286E-001
Argument of Perigee(rad):  -0.857983618
Mean Anom(rad):            -0.5655655338E-001
Af0(s):                     0.2756118774E-003
Af1(s/s):                   0.3637978807E-011
week:                        682

******** Week 682 almanac for PRN-32 ********
ID:                         32
Health:                     000
Eccentricity:               0.1185083389E-001
Time of Applicability(s):  319488.0000
Orbital Inclination(rad):   0.9507768718
Rate of Right Ascen(r/s):  -0.7931758961E-008
SQRT(A)  (m 1/2):           5153.527832
Right Ascen at Week(rad):  -0.2102325164E+001
Argument of Perigee(rad):  -0.516858273
Mean Anom(rad):             0.5360768504E+000
Af0(s):                    -0.4892349243E-003
Af1(s/s):                  -0.3637978807E-011
week:                        682

